STARLINK-1708
1 26580C 20070BA  21325.16822672 -.00001693  00000-0 -11349-3 0  3254
2 26580  53.0546   7.4720 0001491  50.6739  40.9302 15.06390930    18
